QIANFAN-33              
1 61566U 24185Q   25328.77694053  .00000484  00000+0  34044-3 0  9998
2 61566  88.9797  80.8066 0007661  37.7845 322.3868 13.96531635 66653
QIANFAN-34              
1 61567U 24185R   25328.81599282  .00000626  00000+0  39970-3 0  9993
2 61567  88.9774  80.3899 0006853  45.9526 314.2217 14.02282767 66843
QIANFAN-35              
1 61568U 24185S   25328.82816193  .00001023  00000+0  40747-3 0  9994
2 61568  88.9800  78.9782 0006074   3.9073 356.2168 14.27921918 67627
QIANFAN-36              
1 61569U 24185T   25328.87889361  .00000235  00000+0  32134-3 0  9992
2 61569  88.9780  82.9016 0007790  96.6648 263.5392 13.55579900 65507
QIANFAN-37              
1 62238U 24232B   25328.84669627  .00000198  00000+0  28843-3 0  9997
2 62238  89.0035  43.1333 0002505 117.8860 242.2545 13.50986562 96754
QIANFAN-38              
1 62239U 24232C   25328.79729805  .00000219  00000+0  32105-3 0  9997
2 62239  89.0042  43.0529 0013128 241.7532 118.2294 13.50975824 96803
QIANFAN-39              
1 62240U 24232D   25328.80299248  .00000741  00000+0  30809-3 0  9993
2 62240  89.0033  39.3586 0018068 133.3368 226.9334 14.25366448 98833
QIANFAN-40              
1 62241U 24232E   25328.83021042  .00000208  00000+0  30368-3 0  9990
2 62241  89.0069  42.6291 0011980 250.1535 109.8325 13.50975428 97179
